CCSDS_OMM_VERS = 2.0
CREATION_DATE  = 
ORIGINATOR     = 

OBJECT_NAME    = CORAL
OBJECT_ID      = 1998-067YA
CENTER_NAME    = EARTH
REF_FRAME      = TEME
TIME_SYSTEM    = UTC
MEAN_ELEMENT_THEORY = SGP/SGP4

EPOCH          = 2026-03-20T05:43:23.005344
MEAN_MOTION    = 15.55968604
ECCENTRICITY   = .0012105
INCLINATION    = 51.6315
RA_OF_ASC_NODE = 18.8493
ARG_OF_PERICENTER = 212.7395
MEAN_ANOMALY   = 147.2847

EPHEMERIS_TYPE = 0
CLASSIFICATION_TYPE = U
NORAD_CAT_ID   = 67684
ELEMENT_SET_NO = 999
REV_AT_EPOCH   = 643
BSTAR          = .8299E-3
MEAN_MOTION_DOT = .589E-3
MEAN_MOTION_DDOT = 0

CCSDS_OMM_VERS = 2.0
CREATION_DATE  = 
ORIGINATOR     = 

OBJECT_NAME    = GXIBA-1
OBJECT_ID      = 1998-067YB
CENTER_NAME    = EARTH
REF_FRAME      = TEME
TIME_SYSTEM    = UTC
MEAN_ELEMENT_THEORY = SGP/SGP4

EPOCH          = 2026-03-20T05:08:22.437312
MEAN_MOTION    = 15.53099580
ECCENTRICITY   = .0011616
INCLINATION    = 51.6332
RA_OF_ASC_NODE = 19.4363
ARG_OF_PERICENTER = 220.6848
MEAN_ANOMALY   = 139.3275

EPHEMERIS_TYPE = 0
CLASSIFICATION_TYPE = U
NORAD_CAT_ID   = 67685
ELEMENT_SET_NO = 999
REV_AT_EPOCH   = 642
BSTAR          = .48661E-3
MEAN_MOTION_DOT = .30754E-3
MEAN_MOTION_DDOT = 0

CCSDS_OMM_VERS = 2.0
CREATION_DATE  = 
ORIGINATOR     = 

OBJECT_NAME    = UITMSAT-2
OBJECT_ID      = 1998-067YC
CENTER_NAME    = EARTH
REF_FRAME      = TEME
TIME_SYSTEM    = UTC
MEAN_ELEMENT_THEORY = SGP/SGP4

EPOCH          = 2026-03-20T04:54:06.523488
MEAN_MOTION    = 15.53839493
ECCENTRICITY   = .00085039
INCLINATION    = 51.6331
RA_OF_ASC_NODE = 19.3725
ARG_OF_PERICENTER = 189.8163
MEAN_ANOMALY   = 170.2663

EPHEMERIS_TYPE = 0
CLASSIFICATION_TYPE = U
NORAD_CAT_ID   = 67686
ELEMENT_SET_NO = 999
REV_AT_EPOCH   = 642
BSTAR          = .56833207E-3
MEAN_MOTION_DOT = .36971E-3
MEAN_MOTION_DDOT = 0

CCSDS_OMM_VERS = 2.0
CREATION_DATE  = 
ORIGINATOR     = 

OBJECT_NAME    = HMU-SAT2
OBJECT_ID      = 1998-067YD
CENTER_NAME    = EARTH
REF_FRAME      = TEME
TIME_SYSTEM    = UTC
MEAN_ELEMENT_THEORY = SGP/SGP4

EPOCH          = 2026-03-20T12:56:50.553600
MEAN_MOTION    = 15.52885068
ECCENTRICITY   = .00082584
INCLINATION    = 51.6329
RA_OF_ASC_NODE = 17.8618
ARG_OF_PERICENTER = 194.4108
MEAN_ANOMALY   = 165.6648

EPHEMERIS_TYPE = 0
CLASSIFICATION_TYPE = U
NORAD_CAT_ID   = 67687
ELEMENT_SET_NO = 999
REV_AT_EPOCH   = 639
BSTAR          = .65114896E-3
MEAN_MOTION_DOT = .40991E-3
MEAN_MOTION_DDOT = 0

CCSDS_OMM_VERS = 2.0
CREATION_DATE  = 
ORIGINATOR     = 

OBJECT_NAME    = LEOPARD
OBJECT_ID      = 1998-067YE
CENTER_NAME    = EARTH
REF_FRAME      = TEME
TIME_SYSTEM    = UTC
MEAN_ELEMENT_THEORY = SGP/SGP4

EPOCH          = 2026-03-20T05:00:37.027296
MEAN_MOTION    = 15.53500340
ECCENTRICITY   = .00083515
INCLINATION    = 51.6333
RA_OF_ASC_NODE = 19.4024
ARG_OF_PERICENTER = 190.6023
MEAN_ANOMALY   = 169.4793

EPHEMERIS_TYPE = 0
CLASSIFICATION_TYPE = U
NORAD_CAT_ID   = 67688
ELEMENT_SET_NO = 999
REV_AT_EPOCH   = 634
BSTAR          = .52397408E-3
MEAN_MOTION_DOT = .3361E-3
MEAN_MOTION_DDOT = 0

CCSDS_OMM_VERS = 2.0
CREATION_DATE  = 
ORIGINATOR     = 

OBJECT_NAME    = CREW DRAGON 12
OBJECT_ID      = 2026-031A
CENTER_NAME    = EARTH
REF_FRAME      = TEME
TIME_SYSTEM    = UTC
MEAN_ELEMENT_THEORY = SGP/SGP4

EPOCH          = 2026-03-20T20:55:56.726976
MEAN_MOTION    = 15.48402839
ECCENTRICITY   = .0006366
INCLINATION    = 51.6346
RA_OF_ASC_NODE = 17.0785
ARG_OF_PERICENTER = 213.2716
MEAN_ANOMALY   = 146.7873

EPHEMERIS_TYPE = 0
CLASSIFICATION_TYPE = U
NORAD_CAT_ID   = 67796
ELEMENT_SET_NO = 999
REV_AT_EPOCH   = 55798
BSTAR          = .18573E-3
MEAN_MOTION_DOT = .959E-4
MEAN_MOTION_DDOT = 0

